NORAD_CAT_ID,OBJECT_NAME,OBJECT_TYPE,EPOCH,MEAN_MOTION,ECCENTRICITY,INCLINATION,RA_OF_ASC_NODE,ARG_OF_PERICENTER,MEAN_ANOMALY,BSTAR,MEAN_MOTION_DOT,MEAN_MOTION_DDOT,TLE_LINE0,TLE_LINE1,TLE_LINE2,SEMIMAJOR_AXIS,PERIOD,APOGEE,PERIGEE,DECAYED
52105.0,STARLINK-3706,PAYLOAD,2022-07-12 22:00:00,15.08856764,0.0001655,53.2151,315.6355,52.9456,38.1329,-7.276399999999999e-06,-4.04e-06,0.0,0 STARLINK-3706,1 52105U 22029T   22193.91667824 -.00000404  00000-0 -72764-5 0  9999,2 52105  53.2151 315.6355 0001655  52.9456  38.1329 15.08856764 19127,6917.829000000002,95.436,540.839,538.549,0.0
52105.0,STARLINK-3706,PAYLOAD,2022-07-13 14:00:01,15.08844555,0.0001636999999999,53.2153,312.643,56.9833,57.3177,-0.0030859,-0.00049072,0.0,0 STARLINK-3706,1 52105U 22029T   22194.58334491 -.00049072  00000-0 -30859-2 0  9994,2 52105  53.2153 312.6430 0001637  56.9833  57.3177 15.08844555  1303,6917.866,95.437,540.864,538.599,0.0
52105.0,STARLINK-3706,PAYLOAD,2022-07-13 16:00:00,15.08818669,0.000168,53.2154,312.2692,55.2485,151.9561,-0.00033087,-5.547e-05,0.0,0 STARLINK-3706,1 52105U 22029T   22194.66667824 -.00005547  00000-0 -33087-3 0  9998,2 52105  53.2154 312.2692 0001680  55.2485 151.9561 15.08818669 19239,6917.946,95.439,540.9730000000002,538.648,0.0
52105.0,STARLINK-3706,PAYLOAD,2022-07-13 22:00:00,15.08833516,0.0001646,53.2149,311.1464,54.9464,70.9294,-0.0031544,-0.00050133,0.0,0 STARLINK-3706,1 52105U 22029T   22194.91667824 -.00050133  00000-0 -31544-2 0  9992,2 52105  53.2149 311.1464 0001646  54.9464  70.9294 15.08833516  1303,6917.9,95.438,540.904,538.627,0.0
52105.0,STARLINK-3706,PAYLOAD,2022-07-14 14:00:01,15.08807187,0.0001674,53.2148,308.1544,59.1388,89.8411,-0.00062945,-0.00010283,0.0,0 STARLINK-3706,1 52105U 22029T   22195.58334491 -.00010283  00000-0 -62945-3 0  9999,2 52105  53.2148 308.1544 0001674  59.1388  89.8411 15.08807187  1305,6917.981,95.44,541.004,538.688,0.0
52105.0,STARLINK-3706,PAYLOAD,2022-07-14 22:00:00,15.08826512,0.0001652,53.2143,306.6577,57.2499,103.2826,-0.00099225,-0.00016039,0.0,0 STARLINK-3706,1 52105U 22029T   22195.91667824 -.00016039  00000-0 -99225-3 0  9991,2 52105  53.2143 306.6577 0001652  57.2499 103.2826 15.08826512 19423,6917.922,95.438,540.929,538.644,0.0
52105.0,STARLINK-3706,PAYLOAD,2022-07-15 14:00:01,15.08832169,0.0001689,53.2141,303.6656,58.1565,125.5278,3.3183000000000004e-05,2.4e-06,0.0,0 STARLINK-3706,1 52105U 22029T   22196.58334491  .00000240  00000-0  33183-4 0  9993,2 52105  53.2141 303.6656 0001689  58.1565 125.5278 15.08832169 19524,6917.904,95.438,540.938,538.601,0.0
52105.0,STARLINK-3706,PAYLOAD,2022-07-15 22:00:00,15.08860686,0.0001649,53.2138,302.1686,56.5575,138.7152,-0.0010604,-0.00017134,0.0,0 STARLINK-3706,1 52105U 22029T   22196.91667824 -.00017134  00000-0 -10604-2 0  9992,2 52105  53.2138 302.1686 0001649  56.5575 138.7152 15.08860686  1305,6917.816999999999,95.436,540.823,538.5409999999998,0.0
52105.0,STARLINK-3706,PAYLOAD,2022-07-16 06:00:00,15.08893669,0.0001691,53.2169,300.6676,58.0943,148.8134,-0.0057768,-0.00091198,0.0,0 STARLINK-3706,1 52105U 22029T   22197.25001157 -.00091198  00000-0 -57768-2 0  9995,2 52105  53.2169 300.6676 0001691  58.0943 148.8134 15.08893669 19627,6917.715999999999,95.434,540.751,538.4119999999998,0.0
52105.0,STARLINK-3706,PAYLOAD,2022-07-16 14:00:01,15.08835577,0.0001635,53.2137,299.1764,53.9886,164.4466,0.00067946,0.00010541,0.0,0 STARLINK-3706,1 52105U 22029T   22197.58334491  .00010541  00000-0  67946-3 0  9992,2 52105  53.2137 299.1764 0001635  53.9886 164.4466 15.08835577 19671,6917.894,95.438,540.89,538.628,0.0
52105.0,STARLINK-3706,PAYLOAD,2022-07-16 22:00:00,15.08872473,0.0001585,53.2135,297.6792,52.5293,177.5035,-0.0010226,-0.0001654,0.0,0 STARLINK-3706,1 52105U 22029T   22197.91667824 -.00016540  00000-0 -10226-2 0  9993,2 52105  53.2135 297.6792 0001585  52.5293 177.5035 15.08872473  1308,6917.781,95.436,540.743,538.55,0.0
52105.0,STARLINK-3706,PAYLOAD,2022-07-17 06:00:00,15.08873795,0.0001575,53.2136,296.1816,59.7453,181.9124,0.00063298,9.809e-05,0.0,0 STARLINK-3706,1 52105U 22029T   22198.25001157  .00009809  00000-0  63298-3 0  9998,2 52105  53.2136 296.1816 0001575  59.7453 181.9124 15.08873795 19772,6917.776999999999,95.435,540.732,538.553,0.0
52105.0,STARLINK-3706,PAYLOAD,2022-07-17 14:00:01,15.0885815,0.0001766,53.2136,294.6869,53.5238,199.7633,-0.0017739999999999,-0.00028425,0.0,0 STARLINK-3706,1 52105U 22029T   22198.58334491 -.00028425  00000-0 -17740-2 0  9991,2 52105  53.2136 294.6869 0001766  53.5238 199.7633 15.08858150 19824,6917.825,95.436,540.9119999999998,538.4680000000002,0.0
52105.0,STARLINK-3706,PAYLOAD,2022-07-17 22:00:00,15.08851917,0.0001678,53.2149,293.1884,51.2136,213.678,-0.0017786999999999,-0.00028494,0.0,0 STARLINK-3706,1 52105U 22029T   22198.91667824 -.00028494  00000-0 -17787-2 0  9994,2 52105  53.2149 293.1884 0001678  51.2136 213.6780 15.08851917  1300,6917.844,95.437,540.87,538.548,0.0
52105.0,STARLINK-3706,PAYLOAD,2022-07-18 06:00:00,15.08834267,0.0001579,53.2138,291.692,58.6975,217.7805,0.0021805,0.0003458,0.0,0 STARLINK-3706,1 52105U 22029T   22199.25001157  .00034580  00000-0  21805-2 0  9990,2 52105  53.2138 291.6920 0001579  58.6975 217.7805 15.08834267 19923,6917.898,95.438,540.855,538.6709999999998,0.0
52105.0,STARLINK-3706,PAYLOAD,2022-07-18 14:00:01,15.08855884,0.0001717,53.2138,290.1973,50.851000000000006,237.2306,-0.0013237,-0.00021302,0.0,0 STARLINK-3706,1 52105U 22029T   22199.58334491 -.00021302  00000-0 -13237-2 0  9996,2 52105  53.2138 290.1973 0001717  50.8510 237.2306 15.08855884  1302,6917.831999999999,95.437,540.885,538.509,0.0
52105.0,STARLINK-3706,PAYLOAD,2022-07-18 22:00:00,15.08850533,0.0001583,53.2138,288.6998,49.1545,250.5326,-0.0017163,-0.00027507,0.0,0 STARLINK-3706,1 52105U 22029T   22199.91667824 -.00027507  00000-0 -17163-2 0  9997,2 52105  53.2138 288.6998 0001583  49.1545 250.5326 15.08850533 20027,6917.848000000001,95.437,540.808,538.618,0.0
52105.0,STARLINK-3706,PAYLOAD,2022-07-19 14:00:01,15.08827377,0.0001615,53.2141,285.7076,46.2744,276.6194,0.00070882,0.00011007,0.0,0 STARLINK-3706,1 52105U 22029T   22200.58334491  .00011007  00000-0  70882-3 0  9998,2 52105  53.2141 285.7076 0001615  46.2744 276.6194 15.08827377 20124,6917.919,95.438,540.901,538.6669999999998,0.0
52105.0,STARLINK-3706,PAYLOAD,2022-07-19 22:00:00,15.08856619,0.0001546,53.2153,284.2091,46.2007,288.2586,-0.0034429,-0.00054691,0.0,0 STARLINK-3706,1 52105U 22029T   22200.91667824 -.00054691  00000-0 -34429-2 0  9998,2 52105  53.2153 284.2091 0001546  46.2007 288.2586 15.08856619  1307,6917.83,95.437,540.764,538.625,0.0
52105.0,STARLINK-3706,PAYLOAD,2022-07-20 14:00:01,15.08842091,0.0001644,53.214,281.218,47.367,310.3145,-0.001151,-0.00018561,0.0,0 STARLINK-3706,1 52105U 22029T   22201.58334491 -.00018561  00000-0 -11510-2 0  9995,2 52105  53.2140 281.2180 0001644  47.3670 310.3145 15.08842091  1303,6917.874,95.437,540.876,538.602,0.0
52105.0,STARLINK-3706,PAYLOAD,2022-07-20 22:00:01,15.08825813,0.0001460999999999,53.2138,279.7202,47.6094,321.7228,-0.0011007,-0.00017756,0.0,0 STARLINK-3706,1 52105U 22029T   22201.91668981 -.00017756  00000-0 -11007-2 0  9992,2 52105  53.2138 279.7202 0001461  47.6094 321.7228 15.08825813 20332,6917.924,95.438,540.799,538.778,0.0
52105.0,STARLINK-3706,PAYLOAD,2022-07-21 14:00:01,15.08785994,0.0001476999999999,53.2138,276.7287,43.2542,349.2246,0.0012109,0.00019008,0.0,0 STARLINK-3706,1 52105U 22029T   22202.58335648  .00019008  00000-0  12109-2 0  9991,2 52105  53.2138 276.7287 0001477  43.2542 349.2246 15.08785994  1305,6918.045,95.441,540.932,538.889,0.0
52105.0,STARLINK-3706,PAYLOAD,2022-07-21 22:00:00,15.08799862,0.0001368,53.2135,275.2309,45.8367,358.1203,0.0008112999999999,0.00012633,0.0,0 STARLINK-3706,1 52105U 22029T   22202.91667824  .00012633  00000-0  81130-3 0  9990,2 52105  53.2135 275.2309 0001368  45.8367 358.1203 15.08799862  1304,6918.003000000002,95.44,540.814,538.922,0.0
52105.0,STARLINK-3706,PAYLOAD,2022-07-22 06:00:00,15.08839161,0.000138,53.2136,273.7344,51.907,3.5968,0.00080482,0.00012544,0.0,0 STARLINK-3706,1 52105U 22029T   22203.25001157  .00012544  00000-0  80482-3 0  9999,2 52105  53.2136 273.7344 0001380  51.9070   3.5968 15.08839161  1306,6917.8830000000025,95.438,540.703,538.793,0.0
52105.0,STARLINK-3706,PAYLOAD,2022-07-22 22:00:00,15.08855702,0.000144,53.2132,270.7416,47.889,30.817,-0.00036698,-6.126e-05,0.0,0 STARLINK-3706,1 52105U 22029T   22203.91667824 -.00006126  00000-0 -36698-3 0  9992,2 52105  53.2132 270.7416 0001440  47.8890  30.8170 15.08855702  1307,6917.831999999999,95.437,540.694,538.701,0.0
52105.0,STARLINK-3706,PAYLOAD,2022-07-23 08:00:01,15.08876554,0.0001426999999999,53.2132,268.8715,47.8479,135.3612,-0.0041844,-0.00066336,0.0,0 STARLINK-3706,1 52105U 22029T   22204.33334491 -.00066336  00000-0 -41844-2 0  9997,2 52105  53.2132 268.8715 0001427  47.8479 135.3612 15.08876554 20698,6917.769,95.435,540.621,538.646,0.0
52105.0,STARLINK-3706,PAYLOAD,2022-07-23 14:00:01,15.08812049,0.0001523,53.2132,267.7501,40.7913,61.1997,0.0025586,0.00040636,0.0,0 STARLINK-3706,1 52105U 22029T   22204.58335648  .00040636  00000-0  25586-2 0  9997,2 52105  53.2132 267.7501 0001523  40.7913  61.1997 15.08812049  1309,6917.965999999999,95.439,540.884,538.7769999999998,0.0
52105.0,STARLINK-3706,PAYLOAD,2022-07-23 22:00:00,15.08842906,0.0001396999999999,53.2131,266.2521,43.8142,69.7028,8.2675e-05,1.028e-05,0.0,0 STARLINK-3706,1 52105U 22029T   22204.91667824  .00001028  00000-0  82675-4 0  9994,2 52105  53.2131 266.2521 0001397  43.8142  69.7028 15.08842906  1305,6917.871999999999,95.437,540.703,538.77,0.0
52105.0,STARLINK-3706,PAYLOAD,2022-07-24 14:00:01,15.08834514,0.0001646,53.2131,263.2607,40.5645,96.1546,0.001315,0.00020699,0.0,0 STARLINK-3706,1 52105U 22029T   22205.58334491  .00020699  00000-0  13150-2 0  9994,2 52105  53.2131 263.2607 0001646  40.5645  96.1546 15.08834514  1301,6917.897,95.438,540.901,538.623,0.0
